2022-118A               
1 53884U 22118A   22296.40631990  .00004145  00000+0  17815-3 0  9993
2 53884  97.5212 302.9535 0015814 155.0438 341.1081 15.23126877  4338
2022-118B               
1 53885U 22118B   22296.39027251  .00005724  00000+0  23987-3 0  9992
2 53885  97.5214 302.9662 0012982 160.8847 316.1783 15.23853281  4329
STARLINK-5028           
1 53886U 22119A   22296.58334491 -.00056240  00000+0 -39779-3 0  9999
2 53886  53.2146 111.3875 0001117  94.3858 263.7400 15.73269806  1309
STARLINK-5029           
1 53887U 22119B   22296.58334491 -.00043010  00000+0 -30303-3 0  9995
2 53887  53.2138 111.3828 0001192  80.1658 279.7744 15.73243462  1301
STARLINK-5034           
1 53888U 22119C   22296.58334491 -.00012054  00000+0 -81411-4 0  9997
2 53888  53.2146 111.3876 0001585  30.2611 328.4825 15.73248431  1308
STARLINK-5031           
1 53889U 22119D   22296.58334491 -.00031728  00000+0 -22191-3 0  9996
2 53889  53.2148 111.3884 0001282  60.0752 299.2434 15.73261573  1304
STARLINK-5050           
1 53890U 22119E   22296.58334491 -.00093188  00000+0 -66371-3 0  9994
2 53890  53.2193 109.8552 0002089  17.5936  12.5688 15.73309598  1304
STARLINK-5041           
1 53891U 22119F   22296.58334491 -.00052168  00000+0 -36859-3 0  9996
2 53891  53.2140 111.3821 0001065  81.7263 279.3804 15.73263593  1311
STARLINK-5046           
1 53892U 22119G   22296.58334491 -.00026175  00000+0 -18227-3 0  9995
2 53892  53.2157 111.3790 0002269  19.4240 344.7039 15.73245359  1301
STARLINK-5052           
1 53893U 22119H   22296.58334491 -.00029959  00000+0 -20923-3 0  9995
2 53893  53.2136 111.3763 0001360 126.6188 236.2897 15.73262951  1306
STARLINK-5043           
1 53894U 22119J   22296.58334491 -.00051749  00000+0 -36574-3 0  9997
2 53894  53.2139 111.3801 0001178  83.9920 277.7370 15.73252540  1308
STARLINK-5032           
1 53895U 22119K   22296.58334491 -.00042764  00000+0 -30128-3 0  9994
2 53895  53.2139 111.3768 0001084  80.1927 283.3233 15.73242869  1307
STARLINK-5037           
1 53896U 22119L   22296.58334491 -.00064285  00000+0 -45527-3 0  9996
2 53896  53.2148 111.3775 0002459  18.4043 346.2716 15.73289568  1308
STARLINK-5035           
1 53897U 22119M   22296.58334491 -.00042388  00000+0 -29821-3 0  9996
2 53897  53.2145 111.3803 0001184 129.6867 232.6187 15.73271264  1305
STARLINK-5044           
1 53898U 22119N   22296.58334491  .00022506  00000+0  16406-3 0  9990
2 53898  53.2145 111.3741 0001610  38.7915 327.6959 15.73240861  1306
STARLINK-5042           
1 53899U 22119P   22296.58334491 -.00043739  00000+0 -30816-3 0  9995
2 53899  53.2147 111.3758 0001379  38.9079 326.9978 15.73251075  1304
STARLINK-5045           
1 53900U 22119Q   22296.58334491 -.00048865  00000+0 -34467-3 0  9999
2 53900  53.2159 111.3707 0001658  28.4393 339.2363 15.73272637  1309
STARLINK-5024           
1 53901U 22119R   22296.58334491 -.00029798  00000+0 -20793-3 0  9991
2 53901  53.2147 111.3761 0001021  95.3323 269.9590 15.73280035  1309
STARLINK-5021           
1 53902U 22119S   22296.58334491  .00048229  00000+0  31192-3 0  9995
2 53902  53.2136 111.2341 0000766 337.1448  97.2021 15.75611206  1302
STARLINK-5022           
1 53903U 22119T   22296.58334491 -.00048752  00000+0 -34416-3 0  9991
2 53903  53.2147 111.3730 0001059  76.3292 290.7667 15.73254546  1307
STARLINK-4787           
1 53904U 22119U   22296.58334491 -.00011859  00000+0 -79972-4 0  9997
2 53904  53.2138 111.3641 0001054  68.8208 299.4480 15.73265622  1303
STARLINK-5003           
1 53905U 22119V   22296.58334491 -.00074403  00000+0 -52827-3 0  9991
2 53905  53.2140 111.3629 0001122  81.6860 288.3767 15.73294165  1305
STARLINK-5054           
1 53906U 22119W   22296.58334491 -.00081735  00000+0 -58102-3 0  9990
2 53906  53.2146 111.3620 0002050  27.5900 344.2197 15.73301053  1302
STARLINK-5063           
1 53907U 22119X   22296.58334491 -.00013852  00000+0 -94173-4 0  9995
2 53907  53.2147 111.3686 0001800  26.8257 342.0533 15.73262990  1301
STARLINK-5057           
1 53908U 22119Y   22296.58334491 -.00011610  00000+0 -78224-4 0  9995
2 53908  53.2148 111.3622 0000953  84.8852 287.5637 15.73258777  1302
STARLINK-4796           
1 53909U 22119Z   22296.58334491 -.00027562  00000+0 -19205-3 0  9992
2 53909  53.2141 111.3638 0001447  56.5451 312.9140 15.73266122  1308
STARLINK-5056           
1 53910U 22119AA  22296.58334491 -.00087552  00000+0 -62365-3 0  9994
2 53910  53.2141 111.3559 0000995  76.4606 297.7692 15.73284554  1303
STARLINK-5048           
1 53911U 22119AB  22296.58334491 -.00085247  00000+0 -60681-3 0  9993
2 53911  53.2144 111.3610 0000963  87.6753 283.5534 15.73289869  1309
STARLINK-5059           
1 53912U 22119AC  22296.58334491 -.00051662  00000+0 -36476-3 0  9993
2 53912  53.2150 111.3591 0001554  54.3762 319.2344 15.73274015  1306
STARLINK-5053           
1 53913U 22119AD  22296.58334491 -.00060301  00000+0 -42689-3 0  9997
2 53913  53.2147 111.3555 0001080  86.1466 289.2606 15.73277889  1300
STARLINK-5040           
1 53914U 22119AE  22296.58334491 -.00074685  00000+0 -53059-3 0  9991
2 53914  53.2150 111.3537 0001196  76.0752 299.9421 15.73281452  1303
STARLINK-5017           
1 53915U 22119AF  22296.58334491 -.00050747  00000+0 -35819-3 0  9999
2 53915  53.2148 111.3599 0001208  86.6702 286.3500 15.73274538  1300
STARLINK-5051           
1 53916U 22119AG  22296.58334491 -.00057273  00000+0 -40512-3 0  9997
2 53916  53.2207 111.2589 0001131 120.2782 306.6266 15.73275768  1304
STARLINK-5036           
1 53917U 22119AH  22296.58334491 -.00050724  00000+0 -35807-3 0  9993
2 53917  53.2150 111.3564 0001003  75.6546 299.1493 15.73272249  1304
STARLINK-5012           
1 53918U 22119AJ  22296.58334491 -.00086145  00000+0 -61345-3 0  9996
2 53918  53.2150 111.3511 0000946  84.6673 292.5293 15.73284971  1303
STARLINK-5023           
1 53919U 22119AK  22296.58334491 -.00040508  00000+0 -28499-3 0  9993
2 53919  53.2144 111.3494 0001150  67.9487 309.8621 15.73249670  1306
STARLINK-5025           
1 53920U 22119AL  22296.58334491 -.00074243  00000+0 -52741-3 0  9995
2 53920  53.2146 111.3461 0001133  74.8518 305.3396 15.73280955  1308
STARLINK-5005           
1 53921U 22119AM  22296.60806002  .01365635  11826-4  59196-3 0  9992
2 53921  53.2126 106.1918 0017787 159.1602 285.2712 16.21472234  5016
STARLINK-5002           
1 53922U 22119AN  22296.58334491 -.00024727  00000+0 -17186-3 0  9993
2 53922  53.2150 111.3451 0001097  88.0883 292.7087 15.73257070  1303
STARLINK-5004           
1 53923U 22119AP  22296.58334491 -.00050662  00000+0 -35787-3 0  9998
2 53923  53.2147 111.3482 0001260  73.6861 305.9111 15.73255404  1306
STARLINK-5001           
1 53924U 22119AQ  22296.58334491 -.00019113  00000+0 -13177-3 0  9994
2 53924  53.2148 111.3419 0000939  68.8312 313.7504 15.73253853  1306
STARLINK-5011           
1 53925U 22119AR  22296.58334491 -.00048556  00000+0 -34282-3 0  9998
2 53925  53.2153 111.3520 0001231  61.5545 316.8652 15.73249016  4936
STARLINK-5014           
1 53926U 22119AS  22296.58334491 -.00059147  00000+0 -41890-3 0  9990
2 53926  53.2148 111.3399 0001326  91.3521 291.8191 15.73259141  1303
STARLINK-5008           
1 53927U 22119AT  22296.58334491 -.00050275  00000+0 -35507-3 0  9992
2 53927  53.2147 111.3414 0001196  83.6338 298.3288 15.73256948  1307
STARLINK-5009           
1 53928U 22119AU  22296.58334491 -.00040181  00000+0 -28269-3 0  9995
2 53928  53.2146 111.3374 0001303  88.0478 295.7353 15.73244868  1308
STARLINK-5018           
1 53929U 22119AV  22296.58334491 -.00036508  00000+0 -25608-3 0  9998
2 53929  53.2141 111.3430 0001973  22.2067 359.1662 15.73265073  1303
STARLINK-5010           
1 53930U 22119AW  22296.58334491 -.00048746  00000+0 -34390-3 0  9995
2 53930  53.2153 111.3364 0000989  70.3204 314.6395 15.73269337  1303
STARLINK-5015           
1 53931U 22119AX  22296.58334491 -.00078433  00000+0 -55776-3 0  9993
2 53931  53.2140 111.3318 0001361  40.7071 345.4367 15.73278007  1302
STARLINK-4772           
1 53932U 22119AY  22296.58334491 -.00085092  00000+0 -60577-3 0  9998
2 53932  53.2149 111.3351 0001375  48.8719 336.7041 15.73285584  1302
STARLINK-4782           
1 53933U 22119AZ  22296.58334491 -.00040211  00000+0 -28276-3 0  9993
2 53933  53.2147 111.3349 0001395  88.1499 296.2010 15.73256980  1306
STARLINK-4775           
1 53934U 22119BA  22296.58334491 -.00059292  00000+0 -41964-3 0  9992
2 53934  53.2148 111.3299 0001346  72.7132 314.0098 15.73276310  1305
STARLINK-5000           
1 53935U 22119BB  22296.58334491 -.00051539  00000+0 -36374-3 0  9998
2 53935  53.2149 111.3315 0000982  82.2282 305.7206 15.73284589  1308
STARLINK-4791           
1 53936U 22119BC  22296.58334491 -.00027752  00000+0 -19335-3 0  9997
2 53936  53.2150 111.3299 0001048  80.1762 307.1682 15.73274939  1308
STARLINK-4765           
1 53937U 22119BD  22296.58334491 -.00020666  00000+0 -14282-3 0  9991
2 53937  53.2155 111.3277 0001636  30.6087 357.9212 15.73257963  4935
2022-118C               
1 53942U 22118C   22296.62960512  .00032309  24084-5  39651-3 0  9996
2 53942  97.5244 303.3492 0266409 263.4551  93.6297 15.28335564  4375
YAOGAN-36 01A           
1 53943U 22120A   22296.41998028  .00009444  00000+0  38157-3 0  9990
2 53943  34.9980  16.2388 0005604 175.3139 279.8976 15.23986188  4105
CZ-2D DEB               
1 53944U 22120B   22296.40076196  .00024284  00000+0  91462-3 0  9990
2 53944  34.9987  16.0928 0007629 147.3744 302.7494 15.26160715  4105
CZ-2D R/B               
1 53945U 22120C   22296.40668405  .00021514  00000+0  82073-3 0  9992
2 53945  34.9978  16.1380 0007456 138.5180 313.1741 15.25757039  4070
YAOGAN-36 01B           
1 53946U 22120D   22296.42133663 -.00048417  00000+0 -19830-2 0  9991
2 53946  34.9976  16.2443 0005922 129.2844 326.2212 15.23631296  4061
